STARLINK-31848          
1 59784U 24093C   26068.41481086 -.00000441  00000+0 -64959-5 0  9993
2 59784  43.0002 206.9663 0001099 289.2615  70.8118 15.27561249102693
TOMORROW-S4             
1 62386U 24247K   26068.53305366  .00012677  00000+0  46927-3 0  9990
2 62386  44.9818 117.9996 0004434 210.4078 149.6548 15.27717249 67702
